start=new Date('2023-04-12T00:00:00.000Z').valueOf();
sats=[{"MEAN_MOTION_DDOT":"0.0000000000000","OBJECT_TYPE":"PAYLOAD","APOAPSIS":"563.898","MEAN_MOTION_DOT":"0.00002809","SEMIMAJOR_AXIS":"6941.118","OBJECT_ID":"2022-099W","ARG_OF_PERICENTER":"115.5675","GP_ID":"229917021","CENTER_NAME":"EARTH","BSTAR":"0.00022315000000","NORAD_CAT_ID":"53485","MEAN_ELEMENT_THEORY":"SGP4","EPHEMERIS_TYPE":"0","REV_AT_EPOCH":"3644","TLE_LINE2":"2 53485  97.6540 223.3646 0001318 115.5675 244.5686 15.01269346 36446","COUNTRY_CODE":"US","PERIAPSIS":"562.068","REF_FRAME":"TEME","OBJECT_NAME":"STARLINK-4430","EPOCH":"2023-04-11T07:46:55.552512","RA_OF_ASC_NODE":"223.3646","MEAN_ANOMALY":"244.5686","TIME_SYSTEM":"UTC","ELEMENT_SET_NO":"999","INCLINATION":"97.6540","RCS_SIZE":"LARGE","SITE":"AFWTR","CLASSIFICATION_TYPE":"U","TLE_LINE1":"1 53485U 22099W   23101.32425408  .00002809  00000-0  22315-3 0  9997","FILE":"3885783","MEAN_MOTION":"15.01269346","PERIOD":"95.919","ECCENTRICITY":"0.00013180","DECAY_DATE":null,"LAUNCH_DATE":"2022-08-12"},{"OBJECT_NAME":"STARLINK-4431","REF_FRAME":"TEME","PERIAPSIS":"561.856","TLE_LINE2":"2 53486  97.6542 223.3731 0001621 106.5932 253.5470 15.01269963 36443","COUNTRY_CODE":"US","RCS_SIZE":"LARGE","INCLINATION":"97.6542","ELEMENT_SET_NO":"999","MEAN_ANOMALY":"253.5470","TIME_SYSTEM":"UTC","RA_OF_ASC_NODE":"223.3731","EPOCH":"2023-04-11T07:52:15.466656","FILE":"3885783","MEAN_MOTION":"15.01269963","TLE_LINE1":"1 53486U 22099X   23101.32795679  .00001435  00000-0  11629-3 0  9998","CLASSIFICATION_TYPE":"U","SITE":"AFWTR","LAUNCH_DATE":"2022-08-12","DECAY_DATE":null,"ECCENTRICITY":"0.00016210","PERIOD":"95.919","APOAPSIS":"564.106","OBJECT_TYPE":"PAYLOAD","MEAN_MOTION_DDOT":"0.0000000000000","SEMIMAJOR_AXIS":"6941.116","MEAN_MOTION_DOT":"0.00001435","BSTAR":"0.00011629000000","CENTER_NAME":"EARTH","GP_ID":"229917271","OBJECT_ID":"2022-099X","ARG_OF_PERICENTER":"106.5932","REV_AT_EPOCH":"3644","EPHEMERIS_TYPE":"0","MEAN_ELEMENT_THEORY":"SGP4","NORAD_CAT_ID":"53486"},{"FILE":"3885783","MEAN_MOTION":"15.01263419","TLE_LINE1":"1 53487U 22099Y   23101.32055507  .00001306  00000-0  10623-3 0  9998","CLASSIFICATION_TYPE":"U","SITE":"AFWTR","LAUNCH_DATE":"2022-08-12","DECAY_DATE":null,"ECCENTRICITY":"0.00007270","PERIOD":"95.919","OBJECT_NAME":"STARLINK-4432","REF_FRAME":"TEME","PERIAPSIS":"562.497","TLE_LINE2":"2 53487  97.6536 223.3548 0000727 112.8231 247.3070 15.01263419 36448","COUNTRY_CODE":"US","RCS_SIZE":"LARGE","INCLINATION":"97.6536","ELEMENT_SET_NO":"999","MEAN_ANOMALY":"247.3070","TIME_SYSTEM":"UTC","RA_OF_ASC_NODE":"223.3548","EPOCH":"2023-04-11T07:41:35.958048","BSTAR":"0.00010623000000","CENTER_NAME":"EARTH","GP_ID":"229916021","ARG_OF_PERICENTER":"112.8231","OBJECT_ID":"2022-099Y","REV_AT_EPOCH":"3644","EPHEMERIS_TYPE":"0","MEAN_ELEMENT_THEORY":"SGP4","NORAD_CAT_ID":"53487","APOAPSIS":"563.506","OBJECT_TYPE":"PAYLOAD","MEAN_MOTION_DDOT":"0.0000000000000","SEMIMAJOR_AXIS":"6941.136","MEAN_MOTION_DOT":"0.00001306"},{"PERIOD":"95.919","ECCENTRICITY":"0.00011700","DECAY_DATE":null,"LAUNCH_DATE":"2022-08-12","SITE":"AFWTR","TLE_LINE1":"1 53488U 22099Z   23101.32610935  .00003353  00000-0  26546-3 0  9996","MEAN_MOTION":"15.01263590","FILE":"3885783","CLASSIFICATION_TYPE":"U","EPOCH":"2023-04-11T07:49:35.847840","RA_OF_ASC_NODE":"223.3709","TIME_SYSTEM":"UTC","MEAN_ANOMALY":"251.4487","RCS_SIZE":"LARGE","ELEMENT_SET_NO":"999","INCLINATION":"97.6540","PERIAPSIS":"562.189","TLE_LINE2":"2 53488  97.6540 223.3709 0001170 108.6865 251.4487 15.01263590 36440","COUNTRY_CODE":"US","REF_FRAME":"TEME","OBJECT_NAME":"STARLINK-4421","EPHEMERIS_TYPE":"0","MEAN_ELEMENT_THEORY":"SGP4","NORAD_CAT_ID":"53488","REV_AT_EPOCH":"3644","GP_ID":"229916271","OBJECT_ID":"2022-099Z","ARG_OF_PERICENTER":"108.6865","BSTAR":"0.00026546000000","CENTER_NAME":"EARTH","MEAN_MOTION_DOT":"0.00003353","SEMIMAJOR_AXIS":"6941.136","MEAN_MOTION_DDOT":"0.0000000000000","OBJECT_TYPE":"PAYLOAD","APOAPSIS":"563.813"},{"REF_FRAME":"TEME","OBJECT_NAME":"STARLINK-4392","PERIAPSIS":"562.674","COUNTRY_CODE":"US","TLE_LINE2":"2 53489  97.6531 223.3519 0000459 168.4064 191.7171 15.01266216 36448","RCS_SIZE":"LARGE","ELEMENT_SET_NO":"999","INCLINATION":"97.6531","EPOCH":"2023-04-11T07:38:55.864896","TIME_SYSTEM":"UTC","RA_OF_ASC_NODE":"223.3519","MEAN_ANOMALY":"191.7171","TLE_LINE1":"1 53489U 22099AA  23101.31870214  .00003655  00000-0  28899-3 0  9992","MEAN_MOTION":"15.01266216","FILE":"3885783","CLASSIFICATION_TYPE":"U","SITE":"AFWTR","ECCENTRICITY":"0.00004590","LAUNCH_DATE":"2022-08-12","DECAY_DATE":null,"PERIOD":"95.919","OBJECT_TYPE":"PAYLOAD","APOAPSIS":"563.311","MEAN_MOTION_DDOT":"0.0000000000000","SEMIMAJOR_AXIS":"6941.128","MEAN_MOTION_DOT":"0.00003655","BSTAR":"0.00028899000000","CENTER_NAME":"EARTH","GP_ID":"229917521","OBJECT_ID":"2022-099AA","ARG_OF_PERICENTER":"168.4064","REV_AT_EPOCH":"3644","MEAN_ELEMENT_THEORY":"SGP4","EPHEMERIS_TYPE":"0","NORAD_CAT_ID":"53489"},{"MEAN_MOTION_DDOT":"0.0000000000000","OBJECT_TYPE":"PAYLOAD","APOAPSIS":"563.677","MEAN_MOTION_DOT":"0.00001169","SEMIMAJOR_AXIS":"6941.144","OBJECT_ID":"2022-099AB","ARG_OF_PERICENTER":"99.0652","GP_ID":"229947364","CENTER_NAME":"EARTH","BSTAR":"0.00009560400000","NORAD_CAT_ID":"53490","MEAN_ELEMENT_THEORY":"SGP4","EPHEMERIS_TYPE":"0","REV_AT_EPOCH":"3651","COUNTRY_CODE":"US","TLE_LINE2":"2 53490  97.6536 223.8167 0000963  99.0652 261.0681 15.01260936 36519","PERIAPSIS":"562.341","REF_FRAME":"TEME","OBJECT_NAME":"STARLINK-4387","EPOCH":"2023-04-11T18:56:07.377792","RA_OF_ASC_NODE":"223.8167","TIME_SYSTEM":"UTC","MEAN_ANOMALY":"261.0681","ELEMENT_SET_NO":"999","INCLINATION":"97.6536","RCS_SIZE":"LARGE","SITE":"AFWTR","CLASSIFICATION_TYPE":"U","TLE_LINE1":"1 53490U 22099AB  23101.78897428  .00001169  00000-0  95604-4 0  9998","MEAN_MOTION":"15.01260936","FILE":"3885919","PERIOD":"95.919","ECCENTRICITY":"0.00009630","LAUNCH_DATE":"2022-08-12","DECAY_DATE":null},{"PERIAPSIS":"562.083","TLE_LINE2":"2 53491  97.6512 223.8061 0001331 250.2886 109.8194 15.01261732 36510","COUNTRY_CODE":"US","OBJECT_NAME":"STARLINK-4450","REF_FRAME":"TEME","TIME_SYSTEM":"UTC","MEAN_ANOMALY":"109.8194","RA_OF_ASC_NODE":"223.8061","EPOCH":"2023-04-11T18:45:27.171072","RCS_SIZE":"LARGE","INCLINATION":"97.6512","ELEMENT_SET_NO":"999","SITE":"AFWTR","MEAN_MOTION":"15.01261732","FILE":"3885919","TLE_LINE1":"1 53491U 22099AC  23101.78156448  .00001136  00000-0  92992-4 0  9990","CLASSIFICATION_TYPE":"U","PERIOD":"95.919","DECAY_DATE":null,"LAUNCH_DATE":"2022-08-12","ECCENTRICITY":"0.00013310","MEAN_MOTION_DDOT":"0.0000000000000","APOAPSIS":"563.930","OBJECT_TYPE":"PAYLOAD","MEAN_MOTION_DOT":"0.00001136","SEMIMAJOR_AXIS":"6941.142","GP_ID":"229946130","ARG_OF_PERICENTER":"250.2886","OBJECT_ID":"2022-099AC","BSTAR":"0.00009299200000","CENTER_NAME":"EARTH","MEAN_ELEMENT_THEORY":"SGP4","EPHEMERIS_TYPE":"0","NORAD_CAT_ID":"53491","REV_AT_EPOCH":"3651"},{"PERIOD":"95.919","DECAY_DATE":null,"LAUNCH_DATE":"2022-08-12","ECCENTRICITY":"0.00002700","SITE":"AFWTR","CLASSIFICATION_TYPE":"U","FILE":"3885783","MEAN_MOTION":"15.01268558","TLE_LINE1":"1 53492U 22099AD  23101.31894277  .00001686  00000-0  13582-3 0  9996","TIME_SYSTEM":"UTC","RA_OF_ASC_NODE":"223.3521","MEAN_ANOMALY":"236.0778","EPOCH":"2023-04-11T07:39:16.655328","INCLINATION":"97.6529","ELEMENT_SET_NO":"999","RCS_SIZE":"LARGE","TLE_LINE2":"2 53492  97.6529 223.3521 0000270 124.0472 236.0778 15.01268558 36441","COUNTRY_CODE":"US","PERIAPSIS":"562.798","OBJECT_NAME":"STARLINK-4451","REF_FRAME":"TEME","NORAD_CAT_ID":"53492","EPHEMERIS_TYPE":"0","MEAN_ELEMENT_THEORY":"SGP4","REV_AT_EPOCH":"3644","ARG_OF_PERICENTER":"124.0472","OBJECT_ID":"2022-099AD","GP_ID":"229916771","CENTER_NAME":"EARTH","BSTAR":"0.00013582000000","MEAN_MOTION_DOT":"0.00001686","SEMIMAJOR_AXIS":"6941.120","MEAN_MOTION_DDOT":"0.0000000000000","APOAPSIS":"563.173","OBJECT_TYPE":"PAYLOAD"},{"OBJECT_NAME":"STARLINK-4361","REF_FRAME":"TEME","COUNTRY_CODE":"US","TLE_LINE2":"2 53493  97.6517 223.3392 0002587 258.7996 101.2937 15.01263129 36443","PERIAPSIS":"561.207","INCLINATION":"97.6517","ELEMENT_SET_NO":"999","RCS_SIZE":"LARGE","MEAN_ANOMALY":"101.2937","TIME_SYSTEM":"UTC","RA_OF_ASC_NODE":"223.3392","EPOCH":"2023-04-11T07:28:36.238656","CLASSIFICATION_TYPE":"U","FILE":"3885783","MEAN_MOTION":"15.01263129","TLE_LINE1":"1 53493U 22099AE  23101.31153054 -.00000235  00000-0 -13717-4 0  9990","SITE":"AFWTR","LAUNCH_DATE":"2022-08-12","DECAY_DATE":null,"ECCENTRICITY":"0.00025870","PERIOD":"95.919","APOAPSIS":"564.798","OBJECT_TYPE":"PAYLOAD","MEAN_MOTION_DDOT":"0.0000000000000","SEMIMAJOR_AXIS":"6941.137","MEAN_MOTION_DOT":"-0.00000235","CENTER_NAME":"EARTH","BSTAR":"-0.00001371700000","ARG_OF_PERICENTER":"258.7996","OBJECT_ID":"2022-099AE","GP_ID":"229917022","REV_AT_EPOCH":"3644","NORAD_CAT_ID":"53493","MEAN_ELEMENT_THEORY":"SGP4","EPHEMERIS_TYPE":"0"},{"SITE":"AFWTR","FILE":"3885783","MEAN_MOTION":"15.01270576","TLE_LINE1":"1 53494U 22099AF  23101.31684536  .00002200  00000-0  17575-3 0  9992","CLASSIFICATION_TYPE":"U","PERIOD":"95.919","DECAY_DATE":null,"LAUNCH_DATE":"2022-08-12","ECCENTRICITY":"0.00004210","PERIAPSIS":"562.687","TLE_LINE2":"2 53494  97.6524 223.3481 0000421 202.8992 157.2213 15.01270576 36444","COUNTRY_CODE":"US","OBJECT_NAME":"STARLINK-4340","REF_FRAME":"TEME","RA_OF_ASC_NODE":"223.3481","TIME_SYSTEM":"UTC","MEAN_ANOMALY":"157.2213","EPOCH":"2023-04-11T07:36:15.439104","RCS_SIZE":"LARGE","INCLINATION":"97.6524","ELEMENT_SET_NO":"999","GP_ID":"229917272","ARG_OF_PERICENTER":"202.8992","OBJECT_ID":"2022-099AF","BSTAR":"0.00017575000000","CENTER_NAME":"EARTH","MEAN_ELEMENT_THEORY":"SGP4","EPHEMERIS_TYPE":"0","NORAD_CAT_ID":"53494","REV_AT_EPOCH":"3644","MEAN_MOTION_DDOT":"0.0000000000000","APOAPSIS":"563.271","OBJECT_TYPE":"PAYLOAD","MEAN_MOTION_DOT":"0.00002200","SEMIMAJOR_AXIS":"6941.114"}];
